STARLINK-32164          
1 60271U 24131S   24213.83334491 -.01251275  49555-3 -24715-2 0  9991
2 60271  53.1590 265.2090 0000705 128.8100 118.8739 15.99378153  1792
STARLINK-32128          
1 60272U 24131T   24213.83334491 -.01260720  50291-3 -24765-2 0  9991
2 60272  53.1589 265.2069 0000662 126.1946 122.4203 15.99476688  1854
STARLINK-32206          
1 60273U 24131U   24213.83334491 -.01278979  51746-3 -24817-2 0  9991
2 60273  53.1590 265.2027 0000866 115.0044 135.6042 15.99695389  1851
STARLINK-32155          
1 60274U 24131V   24213.83334491 -.01275151  51409-3 -24883-2 0  9990
2 60274  53.1592 265.2045 0000873 103.6653 145.9863 15.99595443  1799
STARLINK-32152          
1 60275U 24131W   24213.83334491 -.01287164  52421-3 -24803-2 0  9995
2 60275  53.1591 265.2004 0000623 110.5948 141.0954 15.99818944  1793
STARLINK-32154          
1 60276U 24131X   24213.83334491 -.01295582  53086-3 -24869-2 0  9999
2 60276  53.1591 265.1985 0000736 106.3967 146.0562 15.99887873  1854
STARLINK-32135          
1 60277U 24131Y   24213.83334491 -.01299595  53456-3 -24775-2 0  9995
2 60277  53.1591 265.1965 0000982 115.2901 138.2385 16.00008482  1853
NOAA 1                  
1 04793U 70106A   24214.58898985 -.00000030  00000+0  81145-4 0  9996
2 04793 101.4434 265.1742 0031125 247.6401 281.2965 12.54030245455367
NOAA 2 (ITOS-D)         
1 06235U 72082A   24213.86826330 -.00000010  00000+0  22786-3 0  9992
2 06235 102.0169 213.3568 0004396  40.5804  22.5004 12.53183292369106
NOAA 3                  
1 06920U 73086A   24213.96447867 -.00000012  00000+0  25423-3 0  9996
2 06920 102.2778 210.3453 0006198 306.6716 109.3080 12.40369259296949
NOAA 4                  
1 07529U 74089A   24213.91376486 -.00000023  00000+0  14552-3 0  9992
2 07529 101.9896 208.5894 0009437  64.0546 309.2567 12.53182083273684
NOAA 5                  
1 09057U 76077A   24213.88974591 -.00000016  00000+0  22396-3 0  9993
2 09057 102.2102 187.2431 0009685 150.8346 264.8157 12.37803241169686
TIROS N                 
1 11060U 78096A   24213.70635248  .00000339  00000+0  18308-3 0  9992
2 11060  98.5298 252.4324 0011619  70.2061 290.0367 14.18862861581520
NOAA 6                  
1 11416U 79057A   24213.96049825  .00000678  00000+0  25547-3 0  9992
2 11416  98.6279 235.1283 0011103 124.4657 235.7579 14.34596591352673
NOAA 7                  
1 12553U 81059A   24213.87206348  .00000149  00000+0  95173-4 0  9991
2 12553  98.8910 273.2318 0012446  69.4814 290.7696 14.17549641227640
NOAA 8                  
1 13923U 83022A   24214.50722342  .00000349  00000+0  15464-3 0  9999
2 13923  98.7316 214.5549 0016111 100.0205 260.2795 14.29289902153503
NOAA 9                  
1 15427U 84123A   24213.94415810  .00000319  00000+0  18293-3 0  9999
2 15427  99.1197 212.4816 0015582 127.3177 252.4658 14.16631859 46387
NOAA 10                 
1 16969U 86073A   24213.95908528  .00000363  00000+0  16201-3 0  9997
2 16969  98.6434 199.4774 0011671 195.8116 222.8785 14.28661783971541
NOAA 11                 
1 19531U 88089A   24213.88895474  .00000166  00000+0  10609-3 0  9998
2 19531  98.5213 174.4906 0012255 104.5730 255.6804 14.15558513850769
NOAA 12                 
1 21263U 91032A   24214.24221881  .00000300  00000+0  14257-3 0  9994
2 21263  98.5600 204.3469 0012773 226.8300 133.1813 14.26346838727565
NOAA 13                 
1 22739U 93050A   24213.89040102  .00000293  00000+0  17878-3 0  9993
2 22739  98.6088 169.7031 0008363 288.9814  71.0453 14.13249270596565
NOAA 14                 
1 23455U 94089A   24214.22341527  .00000164  00000+0  10714-3 0  9994
2 23455  98.4343 207.7366 0008305 250.9377 109.0898 14.14416077526601
NOAA 15                 
1 25338U 98030A   24214.54419140  .00000415  00000+0  18937-3 0  9992
2 25338  98.5671 240.7210 0010201 185.5060 174.6010 14.26644286363907
NOAA 16                 
1 26536U 00055A   24213.95851912  .00000206  00000+0  13108-3 0  9997
2 26536  98.5290 251.5042 0011619 106.2494 253.9958 14.13608452526907
NOAA 17                 
1 27453U 02032A   24214.19768303  .00000365  00000+0  17297-3 0  9990
2 27453  98.7649 164.7706 0011744 172.3624 187.7737 14.25629459149370
NOAA 18                 
1 28654U 05018A   24214.44819179  .00000344  00000+0  20689-3 0  9993
2 28654  98.8732 291.0359 0013159 296.5860  63.3963 14.13267544989652
NOAA 19                 
1 33591U 09005A   24214.47689201  .00000341  00000+0  20709-3 0  9993
2 33591  99.0445 270.7496 0014260 160.8905 199.2804 14.13061796798028
SUOMI NPP               
1 37849U 11061A   24214.50545904  .00000184  00000+0  10819-3 0  9999
2 37849  98.7222 151.8063 0001872 104.8516 255.2868 14.19537876661291
NOAA 20 (JPSS-1)        
1 43013U 17073A   24214.52244034  .00000168  00000+0  10034-3 0  9991
2 43013  98.7065 151.6858 0002395  90.3831 269.7620 14.19551042347339
NOAA 21 (JPSS-2)        
1 54234U 22150A   24214.13532196  .00000217  00000+0  12402-3 0  9992
2 54234  98.7519 151.5042 0001630  58.8020 301.3316 14.19537564 89357
ISS (ZARYA)             
1 25544U 98067A   24214.54091714  .00019661  00000+0  35748-3 0  9996
2 25544  51.6390  90.6319 0006148 150.4340 280.6300 15.49514077465580
CSS (TIANHE)            
1 48274U 21035A   24213.84577643  .00020487  00000+0  25668-3 0  9992
2 48274  41.4673 170.6823 0001182 316.0665  44.0079 15.59276255186082
ISS (NAUKA)             
1 49044U 21066A   24213.90256772  .00036721  00000+0  66014-3 0  9994
2 49044  51.6377  93.7862 0005973 147.7965 320.0621 15.49475947171312
FREGAT DEB              
1 49271U 11037PF  24213.41755657  .00018322  00000+0  36044-1 0  9990
2 49271  51.6673 220.5458 0990667 222.6236 129.3488 12.19808090140591
CSS (WENTIAN)           
1 53239U 22085A   24213.84577643  .00020487  00000+0  25668-3 0  9995
2 53239  41.4673 170.6823 0001182 316.0665  44.0079 15.59276255183378
CSS (MENGTIAN)          
1 54216U 22143A   24213.84577643  .00020487  00000+0  25668-3 0  9996
2 54216  41.4673 170.6823 0001182 316.0665  44.0079 15.59276255 98054
TIANZHOU-7              
1 58811U 24013A   24213.84577643  .00020487  00000+0  25668-3 0  9999
2 58811  41.4673 170.6823 0001182 316.0665  44.0079 15.59276255183379
PROGRESS-MS 26          
1 58961U 24029A   24213.90256772  .00036721  00000+0  66014-3 0  9994
2 58961  51.6377  93.7862 0005973 147.7965 320.0621 15.49475947 25767
CREW DRAGON 8           
1 59097U 24042A   24213.90256772  .00036721  00000+0  66014-3 0  9990
2 59097  51.6377  93.7862 0005973 147.7965 320.0621 15.49475947 22978
SOYUZ-MS 25             
1 59294U 24055A   24213.90256772  .00036721  00000+0  66014-3 0  9993
2 59294  51.6377  93.7862 0005973 147.7965 320.0621 15.49475947 19962
MICROORBITER-1          
1 59483U 98067WF  24214.50449041  .00414313  00000+0  16946-2 0  9992
2 59483  51.6270  79.2159 0007001 192.1257 167.9578 15.84395224 17611
CURTIS                  
1 59507U 98067WG  24213.92313020  .00178253  00000+0  12785-2 0  9998
2 59507  51.6288  85.1113 0005928 164.0169 196.1017 15.72570652 17494
KASHIWA                 
1 59508U 98067WH  24214.35154456  .00807687  28936-3  21154-2 0  9995
2 59508  51.6215  78.1508 0008697 215.1954 144.8480 15.94239197 17620
1998-067WJ              
1 59559U 98067WJ  24213.88491282  .00171864  00000+0  13355-2 0  9992
2 59559  51.6324  86.3849 0004253 138.5353 221.5968 15.70699897 16344
1998-067WK              
1 59560U 98067WK  24213.81050360  .04141004  11879-4  17566-2 0  9991
2 59560  51.6156  78.9942 0011957 251.3800 108.5920 16.21924748 16367
1998-067WL              
1 59561U 98067WL  24213.86793950  .00054074  00000+0  65725-3 0  9992
2 59561  51.6340  90.0330 0004243 120.5026 239.6386 15.60016599 16265
BURSTCUBE               
1 59562U 98067WM  24213.88207081  .00178565  00000+0  13679-2 0  9992
2 59562  51.6336  86.3708 0005971 157.9330 202.1925 15.71009103 16325
SNOOPI                  
1 59563U 98067WN  24213.91065109  .00133430  00000+0  11822-2 0  9990
2 59563  51.6344  87.3221 0005575 156.3560 203.7694 15.67645299 16310
SHENZHOU-18 (SZ-18)     
1 59591U 24078A   24213.84577643  .00020487  00000+0  25668-3 0  9996
2 59591  41.4673 170.6823 0001182 316.0665  44.0079 15.59276255 15144
1998-067WP              
1 59596U 98067WP  24213.90905376  .00275308  00000+0  15440-2 0  9995
2 59596  51.6302  84.2719 0004881 166.5272 193.5859 15.77932239 16380
1998-067WQ              
1 59597U 98067WQ  24214.34423948  .00331187  00000+0  18031-2 0  9992
2 59597  51.6355  81.9548 0004851 167.2178 192.8947 15.78439675 16425
SZ-17 MODULE            
1 59624U 23164C   24213.89048350  .00052243  00000+0  43524-3 0  9997
2 59624  41.4747 168.3803 0008751 217.5000 142.5232 15.69185085 14552
PROGRESS-MS 27          
1 59913U 24103A   24213.90256772  .00036721  00000+0  66014-3 0  9995
2 59913  51.6377  93.7862 0005973 147.7965 320.0621 15.49475947  9419
STARLINER CFT-1         
1 59968U 24109A   24213.90256772  .00036721  00000+0  66014-3 0  9991
2 59968  51.6377  93.7862 0005973 147.7965 320.0621 15.49475947  8474
